X,Y,NAME,ADDRESS,PHONE,NUMROOMS,WEB_URL,GIS_ID,OBJECTID,ZIPCODE,XCOORD,YCOORD,MAR_ID,SE_ANNO_CAD_DATA,CREATED,EDITED,GLOBALID
-8574583.42380329,4717672.12230263,MOTEL 6 WASHINGTON DC,6711 GEORGIA AVENUE NW,202-722-1600,72,https://www.motel6.com/en/motels.dc.washington.4063.html?ncr=true,temp_62,1,20012,397678.38,144905.56,285354,,,,{1142D291-C226-42A4-84E6-B252646D5A51}
-8581050.12166392,4716054.30850869,EMBASSY SUITES BY HILTON WASHINGTON DC CHEVY CHASE PAVILION,4300 MILITARY ROAD NW,202-362-9300,198,http://www.embassysuitesdcmetro.com/,temp_37,2,20015,392643.24,143654.27,301908,,,,{0BE95693-60CB-406A-A816-51AD06DC2E08}
-8575540.46751526,4715432.4959192,INTERNATIONAL GUEST HOUSE,1441 KENNEDY STREET NW,202-726-5808,12,https://igh-dc.com/,temp_53,3,20011,396932.7,143169.27,255891,,,,{63CEFF8E-6AB7-4886-A1D2-3F8A476BB422}
-8578904.3360595,4714076.46902836,DAYS INN BY WYNDHAM WASHINGTON DC/CONNECTICUT AVENUE,4400 CONNECTICUT AVENUE NW,202-244-5600,155,http://www.dcdaysinn.com/,temp_29,4,20008,394312.78,142119.11,222132,,,,{4CBB73B8-C6F9-4FF9-BF56-11196E23925B}
-8574762.83766631,4711638.71005815,ASANTE SANA INN,1207 KENYON STREET NW,202-570-1281,6,,temp_6,5,20010,397537.26,140226.6,231121,,,,{434825F8-89DB-42FA-A891-E5899A320F90}
-8577782.59903509,4711386.72047161,THE KALORAMA GUEST HOUSE,2700 CATHEDRAL AVENUE NW,202-588-8188,11,http://kaloramaguesthouse.com/,temp_91,6,20008,395185.03,140032.2,284453,,,,{98A100F1-477F-4685-AA99-8A4777D121C4}
-8583036.84194258,4711183.64738197,LUXBNB,5185 MACARTHUR BOULEVARD NW,202-341-8799,,https://www.luxbnb.com/,temp_151,7,20016,391092.19,139878.21,275285,,,,{8E13FABB-3C6F-4682-8D2C-296165ADD81A}
-8577582.79889452,4711059.54150811,WOODLEY PARK GUEST HOUSE,2647 WOODLEY ROAD NW,202-667-0218,15,http://www.dcinns.com/woodley.html,temp_132,8,20008,395340.51,139778.29,219986,,,,{197865A7-6851-4CDC-8398-BE9CC438599A}
-8577690.08858629,4710894.66537117,WASHINGTON MARRIOTT WARDMAN PARK,2660 WOODLEY ROAD NW,202-328-2000,1300,http://www.marriott.com/hotels/travel/wasdt-washington-marriott-wardman-park/,temp_127,9,20008,395256.86,139650.43,284450,,,,{207690BE-6EE9-4E63-8C74-BE305C863AB8}
-8576231.71511286,4710869.06497749,ADAM'S INN,1746 LANIER PLACE NW,202-745-3600,26,http://adamsinn.com/,temp_2,10,20009,396392.87,139629.97,307146,,,,{680D04F3-C690-4FB1-B2C1-D7FE9A395B05}
-8579700.06261153,4710693.05175542,KIMPTON GLOVER PARK HOTEL,2505 WISCONSIN AVENUE NW,202-337-9700,150,https://www.gloverparkhotel.com,temp_78,11,20007,393691.04,139495.11,301508,,,,{02808839-88B9-4D2D-B373-42F47B3E1477}
-8576243.34605278,4710615.41509619,THE LINE DC,1770 EUCLID STREET NW,202-588-0525,,https://www.thelinehotel.com/dc/,temp_143,12,20009,396383.72,139433.19,235625,,,,{EA7056C1-F5A7-4172-A1E0-95C702252579}
-8577574.94005963,4710595.51117624,OMNI SHOREHAM HOTEL,2500 CALVERT STREET NW,202-234-0700,832,https://www.omnihotels.com/hotels/washington-dc-shoreham,temp_64,13,20008,395346.42,139418.29,277165,,,,{98E9A64D-20C2-46AE-A694-B4DED8E4C499}
-8576308.66021367,4710277.97956129,HIGHROAD HOSTE,1804 BELMONT ROAD NW,202-735-3622,,http://highroadhostels.com/,temp_160,14,20009,396332.72,139171.42,235426,,,,{7945147B-CAC0-447E-BF29-B7B6193D5F27}
-8577005.48921802,4709955.34274495,WINDSOR PARK HOTEL,2116 KALORAMA ROAD NW,202-483-7700,43,http://www.windsorparkhotel.com/,temp_131,15,20008,395789.75,138921.37,234981,,,,{CBC65A5E-74AD-4387-B643-A0FB1B3A9F69}
-8568328.19602156,4709930.37632468,DAYS INN BY WYNDHAM WASHINGTON DC/GATEWAY,2700 NEW YORK AVENUE NE,202-832-5800,195,https://www.wyndhamhotels.com/days-inn/washington-district-of-columbia/days-inn-washington-dc-gateway/overview,temp_30,16,20002,402549.67,138901.29,287175,,,,{4ACC04D6-A4E0-4D0B-8480-DC502E66CBAD}
-8576715.38080132,4709892.49341421,AMERICAN GUEST HOUSE,2005 COLUMBIA ROAD NW,202-588-1180,12,http://www.americanguesthouse.com/,temp_5,17,20009,396015.73,138872.49,235122,,,,{7BF4C1B3-BB38-4FBE-A975-B71FD9247A7B}
-8569371.48883321,4709851.39446334,QUALITY INN  & SUITES NEW YORK AVE,1600 NEW YORK AVENUE NE,202-832-3200,134,https://www.choicehotels.com/district-of-columbia/washington/quality-inn-hotels/dc012,temp_21,18,20002,401736.92,138839.79,60554,,,,{AAFD8E51-6E10-4AD4-8AF8-FFBBA411E3DC}
-8576892.69605187,4709832.09625495,THE NORMANDY HOTEL,2118 WYOMING AVENUE NW,202-483-1350,75,http://www.thenormandydc.com/,temp_95,19,20008,395877.57,138825.7,235029,,,,{224BE920-757B-4743-9662-F5E8D98770AF}
-8568427.17673667,4709766.87687645,"FAIRFIELD INN & SUITES WASHINGTON, DC/NEW YORK AVENUE",2305 NEW YORK AVENUE NE,202-266-3000,126,http://www.marriott.com/hotels/travel/wasna-fairfield-inn-and-suites-washington-dc-new-york-avenue/,temp_41,20,20002,402472.6,138774.41,307042,,,,{C234A095-4423-40AB-A272-B0539582A1A8}
-8569427.10616341,4709741.23509367,IVY CITY HOTEL,1615 NEW YORK AVENUE NE,202-529-3900,58,https://www.ivycityhotel.com/,temp_11,21,20002,401693.61,138754.31,286348,,,,{1AAB7442-BA43-4D1B-A639-51ACBFB33EB3}
-8576636.78574022,4709713.92293679,WASHINGTON HILTON,1919 CONNECTICUT AVENUE NW,202-483-3000,1070,http://www3.hilton.com/en/hotels/district-of-columbia/washington-hilton-DCAWHHH/index.html,temp_106,22,20009,396076.89,138733.91,242829,,,,{92FD24C7-776D-4115-B83F-7FF1205B9930}
-8576828.66591831,4709701.06606506,THE CHURCHILL HOTEL NEAR EMBASSY ROW,1914 CONNECTICUT AVENUE NW,202-797-2000,173,http://www.thechurchillhotel.com/,temp_19,23,20009,395927.4,138724.01,235060,,,,{A23B6339-EF86-4D69-9A92-A4EB7268226F}
-8573497.61911557,4709658.80462221,THE BIRDHOUSE BED AND BREAKFAST,327 T STREET NW,202-770-7059,7,https://www.birdhousebnb.com/index.htm,temp_145,24,20001,398522.46,138690.31,229780,,,,{03604A89-2C1D-49FD-9700-F13159395D65}
-8576818.87240113,4709651.66981462,"COURTYARD WASHINGTON, DC/DUPONT CIRCLE",1900 CONNECTICUT AVENUE NW,202-332-9300,147,http://www.marriott.com/hotels/travel/wasnw-courtyard-washington-dc-dupont-circle/,temp_24,25,20009,395935.01,138685.68,235054,,,,{2D81B3D8-1FCE-4D25-A3AF-DB907B9F9B1C}
-8573259.46394982,4709606.94502772,LEDROIT PARK BED AND BREAKFEAST,210 T STREET NW,202-277-7847,2,http://www.ledroitparkrenaissancebedandbreakfast.com/,temp_56,26,20001,398707.99,138650.04,229977,,,,{8CD3F771-CD06-411D-A85F-583DC1405BDC}
-8579146.66222031,4709570.19112401,GEORGETOWN HILL INN,1832 WISCONSIN AVENUE NW,202-298-6021,8,http://www.georgetownhillinn.com/,temp_45,27,20007,394121.48,138623.6,274540,,,,{BEBAD762-E2EF-47FF-916B-F2D991D07FC8}
-8575713.84122657,4709545.47684107,WINDSOR INN,1842 16TH STREET NW,202-667-0300,58,http://www.windsor-inn-hotel-dc.com/,temp_130,28,20009,396795.86,138602.89,241907,,,,{E372DA81-9BFA-4CEB-9AAE-11B124EB5491}
-8575973.72316726,4709441.2828801,SWANN HOUSE LLC,1808 NEW HAMPSHIRE AVENUE NW,202-265-4414,12,http://swannhouse.com/,temp_81,29,20009,396593.36,138522.13,241551,,,,{3E89ED31-A23B-4A53-86D6-3ED441BB234F}
-8575994.94258602,4709266.92464414,KIMPTON CARLYLE HOTEL,1731 NEW HAMPSHIRE AVENUE NW,202-234-3200,170,https://www.carlylehoteldc.com/boutique-hotels-washington-dc/,temp_18,30,20009,396576.77,138386.85,241652,,,,{7878B550-BC90-4069-B5F9-EA1D0686FD10}
-8576766.99819555,4709213.07531521,IVY MANSION B&B AT DUPONT CIRCLE,1705 21ST STREET NW,202-302-0242,,http://theivymansion.com/,temp_167,31,20009,395975.25,138345.35,277124,,,,{D60DA30F-1CF6-4FA3-B5AD-36115B7DA69B}
-8577145.73081202,4709135.93479617,EMBASSY CIRCLE GUEST HOUSE,2224 R STREET NW,202-232-7744,11,http://www.dcinns.com/embassy.html,temp_35,32,20008,395680.15,138285.65,234892,,,,{4EBA4752-84CB-4C9F-8C54-9A61A92A082E}
-8571111.95446555,4709121.69327582,HOWARD JOHNSON BY WYNDHAM WASHINGTON DC,600 NEW YORK AVENUE NE,202-546-9200,53,https://www.wyndhamhotels.com/hojo/washington-district-of-columbia/howard-johnson-express-inn-washington-dc/overview,temp_122,33,20002,400381.05,138273.43,288753,,,,{2AACC7BF-1964-42DA-B723-AEED8BA9841A}
-8575614.11419406,4709108.36951525,THE EMBASSY INN HOTEL,1627 16TH STREET NW,202-234-7800,39,https://embassy-inn-hotel-dc.com/,temp_87,34,20009,396873.42,138263.7,242291,,,,{37D9D8AE-972B-47FD-AF07-977BDB134BB4}
-8579981.3970661,4709104.34214434,GEORGETOWN UNIVERSITY HOTEL & CONFERENCE CENTER,3800 RESERVOIR ROAD NW,202-687-3200,146,http://www.acc-guhotelandconferencecenter.com/,temp_48,35,20007,393470.87,138262.65,291547,,,,{BECF906B-400C-4EBD-A544-B7C42850E2AB}
-8571234.56785601,4708981.72715525,HOMEWOOD SUITES WASHINGTON DC NOMA UNION STATION,501 NEW YORK AVENUE NE,202-393-8001,,http://homewoodsuites3.hilton.com/en/hotels/district-of-columbia/homewood-suites-by-hilton-washington-dc-noma-union-station-DCANEHW/index.html,temp_159,36,20002,400267.79,138159.12,288413,,,,{B13E7DA7-DE7F-4CF5-A01A-0D8C6BC30F48}
-8571257.33256254,4708974.38076569,HAMPTON INN WASHINGTON DC NOMA UNION STATION,501 NEW YORK AVENUE NE,202-393-1001,,http://hamptoninn3.hilton.com/en/hotels/district-of-columbia/hampton-inn-washington-dc-noma-union-station-DCANYHX/index.html,temp_133,37,20002,400267.79,138159.12,288413,,,,{7E01CA8B-37C8-4A00-A20D-6C79BFD2DBE9}
-8576687.24581699,4708892.79350645,THE EMBASSY ROW HOTEL,2015 MASSACHUSETTS AVENUE NW,202-265-1600,231,http://www.embassyrowhotel.com/,temp_36,38,20036,396037.26,138096.8,225934,,,,{29C3D41F-943C-46D1-BB6C-6C8A73D383E4}
-8576835.5633656,4708859.17193543,THE FAIRFAX AT EMBASSY ROW,2100 MASSACHUSETTS AVENUE NW,202-293-2100,259,https://fairfaxwashingtondc.com,temp_88,39,20008,395921.69,138070.77,225940,,,,{71DAF82A-2602-4DAB-895C-F9377D280795}
-8576398.09327416,4708856.36022381,THE DUPONT CIRCLE HOTEL,1500 NEW HAMPSHIRE AVENUE NW,202-483-6000,327,http://www.doylecollection.com/locations/washington_dc_hotels/the_dupont_circle_hotel.aspx,temp_85,40,20036,396262.53,138068.42,225560,,,,{F115C58A-64D9-4532-A2A7-E0D29284DFEC}
-8576997.56511245,4708831.39187177,THE BARON HOTEL,1523 22ND STREET NW,202-293-1887,53,http://www.thebaronhotel.com/,temp_83,41,20037,395795.46,138049.28,225698,,,,{BE229AFB-AAFA-48BE-9CBC-78BF655CF1B1}
-8571367.05121092,4708813.35538363,MOTEL 6 WASHINGTON DC - CONVENTION CENTER,1345 4TH STREET NE,202-544-2000,33,https://www.motel6.com/en/motels.dc.washington.4481.html?ncr=true,temp_63,42,20002,400182.31,138034.17,66534,,,,{B15127F3-1ADB-4105-BE10-4BD7AA7D9824}
-8576879.04970258,4708762.42991247,KIMPTON HOTEL PALOMAR WASHINGTON DC,2121 P STREET NW,202-448-1800,335,http://www.hotelpalomar-dc.com/,temp_119,43,20037,395887.77,137995.72,225942,,,,{C6FA902F-4587-4ADE-855C-4E0BF3EC67A7}
-8576868.86750569,4708704.72617247,"RESIDENCE INN WASHINGTON, DC/DUPONT CIRCLE",2120 P STREET NW,202-466-6800,107,http://www.marriott.com/hotels/travel/wasri-residence-inn-washington-dc-dupont-circle/,temp_71,44,20037,395895.68,137950.94,279547,,,,{0BF18491-8F93-4406-AE52-F8A5C16D8177}
-8577762.92578531,4708678.88508673,THE AVERY GEORGETOWN,2616 P STREET NW,202-827-4390,,https://www.averygeorgetown.com/,temp_162,45,20007,395199.08,137931.28,272383,,,,{7AB6399C-509D-47EA-BBC3-CAAD4890041A}
-8574241.31068361,4708609.82096345,"CAMBRIA HOTEL WASHINGTON, DC CONVENTION CENTER",899 O STREET NW,202-299-1188,,https://www.cambriadc.com/en-us,temp_150,46,20001,397942.87,137876.5,310640,,,,{523B5C18-2F3B-4CB7-BCDE-684BA6F741AF}
-8575122.30028461,4708580.44087829,BED AND BREAKFAST DC,1339 14TH STREET NW,202-328-3510,,https://www.bedandbreakfastdc.com,temp_146,47,20005,397256.45,137853.91,229780,,,,{B46B43B4-E3B0-45CA-B905-5211BC37BEA1}
-8576713.41552746,4708557.85420046,THE MANSION ON O STREET,2020 O STREET NW,202-496-2000,49,http://omansion.com/lodging,temp_93,48,20036,396016.74,137836.91,243057,,,,{3B5D37DE-374D-4E9C-9857-676FDC604938}
-8574578.10086351,4708547.74081505,DC LOFTY HOSTEL,1333 11TH STREET NW,202-506-7106,,http://dclofty.com/,temp_31,49,20001,397680.45,137828.4,239320,,,,{56D11201-FE3F-4F29-B9F2-B94C8481A8B4}
-8575623.0421467,4708541.09059757,KIMPTON ROUGE HOTEL,1315 16TH STREET NW,202-232-8000,137,http://www.rougehotel.com/,temp_120,50,20036,396866.29,137823.52,242317,,,,{4AB29100-8457-4BC6-B50C-9FA31012FAB8}
-8575493.98185759,4708519.58114929,HOLIDAY INN WASHINGTON DC-CENTRAL/WHITE HOUSE,1501 RHODE ISLAND AVENUE NW,202-483-2000,212,http://www.inndc.com/,temp_110,51,20005,396966.84,137806.79,242311,,,,{48811EEB-73D6-42C5-B8D3-7CDE9B212547}
-8575275.1502743,4708514.54684131,KIMPTON MASON & ROOK HOTEL,1430 RHODE ISLAND AVENUE NW,202-742-3100,178,https://www.masonandrookhotel.com/,temp_115,52,20005,397137.34,137802.82,279165,,,,{12B658A4-BB3E-4E03-BFA0-0F431EA9865E}
-8575301.3279618,4708501.13487211,THE DISTRICT HOTEL,1440 RHODE ISLAND AVENUE NW,202-232-7800,58,http://dcembassyinn.wixsite.com/district,temp_32,53,20005,397116.94,137792.42,218282,,,,{085A0BD9-E6EF-49B6-9C15-0A84B45F1725}
-8575553.7040583,4708493.8098692,THE DARCY HOTEL,1515 RHODE ISLAND AVENUE NW,202-232-7000,226,https://www.thedarcyhotel.com/,temp_34,54,20005,396920.3,137786.81,242312,,,,{522B68A3-9693-417B-94CE-07781A10DEEA}
-8571953.22490255,4708473.87936154,"COURTYARD WASHINGTON, DC/U.S. CAPITOL",1325 2ND STREET NE,202-898-4000,218,http://www.marriott.com/hotels/travel/wasus-courtyard-washington-dc-us-capitol/,temp_27,55,20002,399725.6,137770.75,304846,,,,{C7ADF6DF-A2DA-47E8-B35C-BC145C25C3EC}
-8576465.07286464,4708466.13125552,INN AT DUPONT SOUTH,1312 19TH STREET NW,202-359-8432,8,http://www.thedupontcollection.com,temp_52,56,20036,396210.2,137765.64,241066,,,,{F69DDD06-025B-4E9D-99C3-D93B9C6A786B}
-8576694.34099392,4708450.48975875,KIMPTON HOTEL MADERA,1310 NEW HAMPSHIRE AVENUE NW,202-296-7600,82,http://www.hotelmadera.com/,temp_117,57,20036,396031.56,137753.59,243325,,,,{3CFBC419-0C25-4603-8CC7-05020384B5CF}
-8572456.51526313,4708438.25572798,HYATT PLACE WASHINGTON DC/US CAPITOL,33 NEW YORK AVENUE NE,202-289-5599,200,https://washingtondcuscapitol.place.hyatt.com/en/hotel/home.html,temp_156,58,20002,399333.46,137743.13,37070,,,,{F0625992-6010-42DD-9ACF-45CB6BC95B24}
-8576052.82283672,4708424.97990748,TABARD INN,1739 N STREET NW,202-785-1277,40,http://www.tabardinn.com/,temp_82,59,20036,396531.39,137733.56,218468,,,,{D9AFB04B-9EB7-4154-984F-3FCA0CD869EB}
-8576021.42752438,4708419.9162524,KIMPTON TOPAZ HOTEL,1733 N STREET NW,202-393-3000,99,http://www.topazhotel.com/,temp_99,60,20036,396555.85,137729.62,241760,,,,{D91A2871-852B-4A97-9005-6405566D0125}
-8578676.80611843,4708389.37400888,GEORGETOWN INN,1310 WISCONSIN AVENUE NW,202-333-8900,96,http://www.georgetowninn.com/,temp_46,61,20007,394486.89,137707.09,279035,,,,{DD0E3E60-C410-4A13-98F1-7467C5960254}
-8575836.71758762,4708366.97891328,BEACON HOTEL AND CORPORATE QUARTERS,1615 RHODE ISLAND AVENUE NW,202-296-2100,60,http://www.beaconhotelwdc.com/,temp_8,62,20036,396699.75,137688.48,279263,,,,{9D14F921-1303-4CC3-B63C-8E0743A9A810}
-8577105.27986544,4708338.40418009,THE DISTRICT BY HILTON CLUB,1250 22ND STREET NW,202-449-3100,318,http://www3.hilton.com/en/hotels/district-of-columbia/the-district-by-hilton-club-WASVCGV/index.html,temp_39,63,20037,395711.33,137666.78,242364,,,,{AA49D678-1FFF-49FA-B70F-D1F4A9DF319B}
-8575339.44212585,4708313.72062342,"HOMEWOOD SUITES WASHINGTON, D.C. DOWNTOWN",1475 MASSACHUSETTS AVENUE NW,202-265-8000,175,http://homewoodsuites3.hilton.com/en/hotels/district-of-columbia/homewood-suites-by-hilton-washington-dc-downtown-WASHWHW/index.html,temp_111,64,20005,397087.19,137647,279197,,,,{7E38CA73-82FC-4569-8D7E-B90CA9E82FEB}
-8575716.68103455,4708312.22112804,COURTYARD WASHINGTON EMBASSY ROW,1600 RHODE ISLAND AVENUE NW,202-293-8000,158,http://www.marriott.com/hotels/travel/wasem-courtyard-washington-embassy-row/,temp_25,65,20036,396793.26,137645.95,242882,,,,{D6986656-E280-4BB1-8AD1-166300325734}
-8574576.8173391,4708283.52237146,DUO HOUSING HOSTEL,1223 11TH STREET NW,202-808-2195,,http://duohousing.com/,temp_165,66,20001,397681.39,137623.37,239327,,,,{C7DC6F45-8FA7-48EF-AE88-1E0D59160671}
-8576825.46923554,4708271.34836183,THE CONCORDIA,1250 NEW HAMPSHIRE AVENUE NW,202-557-2000,121,http://www.theconcordia.com/,temp_84,67,20036,395929.32,137614.63,279009,,,,{370BE2B9-598C-48AE-A663-95A126741134}
-8572226.25336196,4708255.68021369,HILTON GARDEN INN WASHINGTON DC/U.S. CAPITOL,1225 1ST STREET NE,202-408-4870,204,http://hiltongardeninn3.hilton.com/en/hotels/district-of-columbia/hilton-garden-inn-washington-dc-us-capitol-DCANMGI/index.html,temp_108,68,20002,399512.86,137601.44,307284,,,,{52F8C669-0E2C-4C0F-B03D-E5C1B69A1AD6}
-8575049.04484248,4708252.97287297,WASHINGTON PLAZA HOTEL,10 THOMAS CIRCLE NW,202-842-1300,355,http://www.washingtonplazahotel.com/,temp_128,69,20005,397313.44,137599.78,298252,,,,{11686F92-48BB-40C7-8188-24D7E88FC08B}
-8576998.92706181,4708227.63608457,WASHINGTON MARRIOTT GEORGETOWN,1221 22ND STREET NW,202-872-1500,470,http://www.marriott.com/hotels/travel/waswe-washington-marriott/,temp_126,70,20037,395794.15,137580.78,300163,,,,{12270AC1-9724-4DF6-9BAF-D480D6823409}
-8575714.94489673,4708208.04621338,"THE JEFFERSON, WASHINGTON, DC",1200 16TH STREET NW,202-448-2300,96,http://www.jeffersondc.com/,temp_54,71,20036,396794.58,137565.11,242021,,,,{82FB4315-1206-4796-B368-EF010292CE0D}
-8576753.12655325,4708203.31835037,SAINT GREGORY,2033 M STREET NW,202-530-3600,155,http://www.stgregoryhotelwdc.com/,temp_77,72,20036,395985.66,137561.81,279520,,,,{BFD54571-FD54-43AF-91A7-86BA67EDEA92}
-8574868.20711198,4708203.29058892,COMFORT INN DOWNTOWN DC/CONVENTION CENTER,1201 13TH STREET NW,202-682-5300,100,https://www.dcdowntownhotel.com/,temp_22,73,20005,397454.33,137561.18,240912,,,,{3C15ABA4-53C5-40A0-A14B-6DBC1BD986DA}
-8571036.62425254,4708184.83336124,KELLOGG CONFERENCE HOTEL AT GALLAUDET UNIVERSITY,800 FLORIDA AVENUE NE,202-651-6000,97,http://kelloggconferencehotel.com/index.php,temp_43,74,20002,400439.78,137546.46,288964,,,,{6703DC44-83E2-4B90-80A1-DB6A189E0355}
-8577292.11011185,4708178.08122728,PARK HYATT WASHINGTON,1201 24TH STREET NW,202-789-1234,216,http://parkwashington.hyatt.com/en/hotel/home.html,temp_66,75,20037,395565.69,137542.45,242765,,,,{1ACFC627-E85D-4D08-A02B-053218A2E020}
-8577364.51882369,4708152.47338314,THE FAIRMONT,2401 M STREET NW,202-429-2400,415,http://www.fairmont.com/washington/,temp_89,76,20037,395509.26,137522.61,273950,,,,{96C6AB1A-48BF-4315-94B6-FF12C3F02233}
-8576961.78181729,4708148.6483704,HYATT PLACE WASHINGTON DC/GEORGETOWN/WEST END,2121 M STREET NW,202-838-2222,168,https://www.hyatt.com/en-US/hotel/washington-dc/hyatt-place-washington-dc-georgetown-west-end/waszm,temp_154,77,20037,395823.06,137519.47,310698,,,,{C0ACC0FD-393E-4046-AA53-E8942AC3DB5A}
-8577062.86164602,4708145.3984693,HILTON GARDEN INN WASHINGTON DC/GEORGETOWN AREA,2201 M STREET NW,202-947-6010,,http://hiltongardeninn3.hilton.com/en/hotels/district-of-columbia/hilton-garden-inn-washington-dc-georgetown-area-WASWEGI/index.html,temp_149,78,20037,395744.3,137516.99,243160,,,,{1F5CE6A1-B2C7-400F-9E40-251311B512F7}
-8573421.74399174,4708140.85816327,MT. VERNON SQUARE BED & BREAKFAST,400 M STREET NW,888-399-5496,5,http://mvsbed.com/,temp_169,79,20001,398581.36,137512.45,237558,,,,{5DF0FDD4-D5D2-4449-98F9-A7E3EB160868}
-8575392.58374341,4708126.65196043,"THE MADISON WASHINGTON DC, A HILTON HOTEL",1177 15TH STREET NW,202-862-1600,365,http://www3.hilton.com/en/hotels/district-of-columbia/the-madison-washington-dc-a-hilton-hotel-DCAKEHH/accommodations/index.html,temp_57,80,20005,397045.73,137501.85,240251,,,,{17B680FD-6CDA-4958-8B39-7CC8BA092E53}
-8575323.13567406,4708119.04895184,"THE WESTIN WASHINGTON, D.C. CITY CENTER",1400 M STREET NW,202-429-1700,406,http://www.starwoodhotels.com/westin/property/overview/index.html?propertyID=1761,temp_97,81,20005,397099.84,137495.93,240254,,,,{858BE937-D3A2-4481-AFB7-7EA1DF02DE7E}
-8575115.19950552,4708086.73965919,KIMPTON DONOVAN HOTEL,1155 14TH STREET NW,202-737-1200,193,http://www.donovanhousehotel.com/,temp_33,82,20005,397261.85,137470.8,242940,,,,{5DDF92AD-53CE-455B-B5C8-66EA0E9798E0}
-8577288.87972231,4708069.82378201,"THE WESTIN GEORGETOWN, WASHINGTON D.C.",2350 M STREET NW,202-429-0100,267,http://www.westingeorgetown.com/,temp_129,83,20037,395568.16,137458.44,242338,,,,{6279977C-00E8-46E6-B9F2-30BE10019533}
-8578271.43565206,4708043.61859851,THE GRAHAM GEORGETOWN,1075 THOMAS JEFFERSON STREET NW,202-337-0900,57,https://www.thegrahamgeorgetown.com/,temp_90,84,20007,394802.56,137438.57,273855,,,,{E4FD09BD-F9CB-4636-86FB-2FC3BA665658}
-8576895.62735742,4708035.50165618,THE WINK WASHINGTON DC,1143 NEW HAMPSHIRE AVENUE NW,202-775-0800,346,https://www.thewinkhoteldc.com/,temp_68,85,20037,395874.56,137431.64,243210,,,,{E2D97D66-86BF-4192-9DC4-B30052D58D44}
-8577973.38311498,4708029.68720666,FOUR SEASONS HOTEL,2800 PENNSYLVANIA AVENUE NW,202-342-0444,222,http://www.fourseasons.com/washington/,temp_42,86,20007,395034.79,137427.61,279626,,,,{DED3E56E-8888-425F-8BB9-A62E87C72CBF}
-8577063.47951385,4708004.98779099,"THE RITZ-CARLTON, WASHINGTON, D.C.",1150 22ND STREET NW,202-835-0500,300,http://www.ritzcarlton.com/en/Properties/WashingtonDC/Default.htm,temp_74,87,20037,395743.76,137408.03,278889,,,,{1C1D21F4-C7F0-4410-A4CA-C3F0A4C3151B}
-8575994.44576608,4707994.03953897,"THE MAYFLOWER HOTEL, AUTOGRAPH COLLECTION",1127 CONNECTICUT AVENUE NW,202-347-3000,657,https://www.marriott.com/hotels/travel/wasak-the-mayflower-hotel-autograph-collection/,temp_94,88,20036,396576.73,137399.13,241797,,,,{AA3E3FF5-1C57-4B1C-893F-61501B4E543D}
-8574428.30790504,4707991.85350459,THE ELDON LUXURY SUITES,933 L STREET NW,202-540-5000,50,http://eldonsuites.com/,temp_86,89,20001,397797.04,137397,239808,,,,{5D8F2C8F-FC8B-4A7E-9130-483AA7844B5D}
-8575204.58023401,4707990.27955671,"RESIDENCE INN WASHINGTON, DC DOWNTOWN",1199 VERMONT AVENUE NW,202-898-1100,202,http://www.marriott.com/hotels/travel/wasdc-residence-inn-washington-dc-downtown/,temp_70,90,20005,397192.18,137395.97,278914,,,,{49EA08F1-A584-4848-ACE7-F23F202C0522}
-8574551.28054378,4707984.7824785,MORRISON-CLARK INN,1011 L STREET NW,202-898-1200,114,http://www.morrisonclark.com/,temp_61,91,20001,397701.22,137391.54,239355,,,,{D0173C37-D06E-4A19-9CBA-AC11176D7C6E}
-8573637.19760007,4707984.74997289,HOMEWOOD SUITES WASHINGTON DC CONVENTION CENTER,465 NEW YORK AVENUE NW,202-628-4663,,http://homewoodsuites3.hilton.com/en/hotels/district-of-columbia/homewood-suites-by-hilton-washington-dc-convention-center-WASCOHW,temp_139,92,20001,398413.46,137391.34,279794,,,,{45562536-E2FD-4CAA-AFC8-6E480170F286}
-8578162.85927081,4707982.51814861,GEORGETWON SUITES 30TH STREET,1111 30TH STREET NW,202-298-7800,220,http://www.georgetownsuites.com/,temp_49,93,20007,394887.13,137391.1,294968,,,,{B94C8132-1DA0-4A30-8089-149E877B35C7}
-8574306.51093101,4707980.49531308,RESIDENCE INN WASHINGTON DOWNTOWN/CONVENTION CENTER,901 L STREET NW,202-408-5300,,https://www.marriott.com/hotels/maps/travel/wasrd-residence-inn-washington-downtown-convention-center/,temp_157,94,20001,397891.94,137388.16,313138,,,,{C256B9F8-315B-4F7D-990A-0213422ABE5C}
-8574293.71160978,4707980.26548516,COURTYARD WASHINGTON DOWNTOWN/CONVENTION CENTER,901 L STREET NW,202-589-1800,,https://www.marriott.com/hotels/travel/wasyv-courtyard-washington-downtown-convention-center/,temp_148,95,20001,397891.94,137388.16,313138,,,,{34F617F5-C71E-49CA-8407-DAFAAC8EA6DD}
-8578388.00135476,4707977.5244177,THE GEORGETOWN HOUSE,1061 31ST STREET NW,202-827-4294,11,https://www.thegeorgetownhousedc.com/,temp_163,96,20007,394711.7,137387.34,273844,,,,{2C4C504C-B234-45ED-9FFD-D044DE926FB4}
-8576939.01263021,4707974.16573643,GEORGETOWN INN WEST END,1121 NEW HAMPSHIRE AVENUE NW,202-457-0565,76,https://www.georgetowninnwestend.com/,temp_9,97,20037,395840.73,137384.06,242738,,,,{655B1401-6C08-4620-A1BF-CA6D9F1F3145}
-8578442.29486434,4707929.15149817,"ROSEWOOD WASHINGTON, D.C.",1050 31ST STREET NW,202-617-2400,61,https://www.rosewoodhotels.com/en/washington-dc,temp_12,98,20007,394669.37,137349.83,273780,,,,{CE7405BF-83BE-4600-B31A-01BAD14E1242}
-8576355.07389811,4707927.57670117,HOTEL RL,1823 L STREET NW,202-223-4320,99,https://www.redlion.com/washington-dc,temp_96,99,20036,396295.71,137347.68,241297,,,,{4782822B-79C4-45C1-8D8C-12E1FFE348DD}
-8575415.43376848,4707866.30120372,THE ARCHITECT HOTEL,1025 15TH STREET NW,202-408-8200,,http://www.thearchitecthotel.com/,temp_161,100,20005,397027.85,137299.82,278793,,,,{02901E55-29B9-4AD1-A931-BECEF2140038}
-8577575.56570046,4707849.80597991,AVENUE SUITES HOTEL,2500 PENNSYLVANIA AVENUE NW,202-333-8060,124,https://www.avenuesuitesgeorgetown.com/,temp_7,101,20037,395344.68,137287.83,273885,,,,{05257E97-AEFF-4567-96E0-0D4A20F34866}
-8577136.49261804,4707840.86786216,ONE WASHINGTON CIRCLE HOTEL,1 WASHINGTON CIRCLE NW,202-872-1680,151,http://www.thecirclehotel.com/,temp_65,102,20037,395686.8,137280.7,242366,,,,{6E5B4C63-D6D4-4AB2-BEDE-2B6F7F38C958}
-8574295.49733707,4707826.77882353,"MARRIOT MARQUIS WASHINGTON, DC",901 MASSACHUSETTS AVENUE NW,202-824-9200,1175,https://www.marriott.com/hotels/travel/wasco-marriott-marquis-washington-dc,temp_125,103,20001,397900.49,137268.87,239811,,,,{5BD2A1F8-5A23-4EA2-B8B1-4A96D9D305E5}
-8578469.64605438,4707818.11869846,RITZ-CARLTON GEORGETOWN,3100 SOUTH STREET NW,202-912-4100,86,http://www.ritzcarlton.com/en/hotels/washington-dc/georgetown,temp_75,104,20007,394648,137263.68,300061,,,,{04F244E0-1573-4BED-8780-47284D048B0A}
-8574462.86965324,4707808.79543782,HENLEY PARK HOTEL,926 MASSACHUSETTS AVENUE NW,202-638-5200,96,http://www.henleypark.com/,temp_105,105,20001,397770.07,137254.95,242922,,,,{56A3E237-36EB-4003-8845-9E4ADAD1B9F5}
-8575601.06312048,4707805.21379567,CAPITAL HILTON,1001 16TH STREET NW,202-393-1000,541,http://www3.hilton.com/en/hotels/district-of-columbia/capital-hilton-DCASHHH/index.html,temp_13,106,20036,396883.19,137252.47,278775,,,,{ECC6D70D-952B-4B14-A8EB-F625B4DB02B2}
-8577465.13511853,4707789.48634365,MELROSE GEORGETOWN HOTEL,2430 PENNSYLVANIA AVENUE NW,202-955-6400,277,http://www.melrosehoteldc.com/,temp_60,107,20037,395430.7,137240.97,279592,,,,{B1E15437-F4E3-443B-B85E-1BC75BDD907E}
-8578097.39069617,4707776.61365356,GEORGETOWN SUITES HARBOUR,1000 29TH STREET NW,202-298-7800,222,http://www.georgetownsuites.com/,temp_47,108,20007,394938.04,137231.28,276422,,,,{FC49DC2C-C10D-4815-AE6A-A2D4C65206B7}
-8575117.35129001,4707776.27095074,HAMILTON HOTEL WASHINGTON DC,1001 14TH STREET NW,202-682-0111,301,http://www.hamiltonhoteldc.com/,temp_51,109,20005,397260.09,137229.87,240644,,,,{E522A5DD-6379-465A-B2A1-BD4D6D356C70}
-8574769.55905334,4707775.71575151,EATON WASHINGTON DC,1201 K STREET NW,202-289-7600,209,https://www.eatonworkshop.com/hotel/dc,temp_144,110,20005,397531.09,137229.35,243282,,,,{6133E994-CB72-4143-81A3-93A5B21A149A}
-8574579.44106494,4707774.93590233,HI WASHINGTON DC HOSTEL,1009 11TH STREET NW,202-737-2333,250,http://www.hiusa.org/washingtondc/,temp_112,111,20001,397679.23,137228.7,239366,,,,{E9548CC0-E098-46C7-AE6D-0313A4687E93}
-8575570.60606045,4707666.31486029,HYATT PLACE WASHINGTON DC/WHITE HOUSE,1522 K STREET NW,202-830-1900,164,https://www.hyatt.com/en-US/hotel/washington-dc/hyatt-place-washington-dc-white-house/waszw,temp_152,112,20005,396906.88,137144.67,218324,,,,{F3E8D00D-1646-4CE9-B870-ECD15D821E29}
-8575619.28096603,4707659.64652818,"THE ST. REGIS WASHINGTON, D.C.",923 16TH STREET NW,202-638-2626,193,http://www.starwoodhotels.com/stregis/property/overview/index.html?propertyID=193,temp_79,113,20006,396868.95,137139.51,242334,,,,{4F11E36F-6E9C-4B75-A57D-5FCAA636E0BB}
-8574518.03387078,4707646.71277334,EMBASSY SUITES BY HILTON WASHINGTON DC CONVENTION CENTER,900 10TH STREET NW,202-739-2001,382,http://embassysuites3.hilton.com/en/hotels/district-of-columbia/embassy-suites-washington-dc-convention-center-WASCCES/index.html,temp_38,114,20001,397727.05,137129.18,300519,,,,{9AF64A27-9EE8-479A-A893-951460DD071A}
-8574238.01301993,4707620.09012303,RENAISSANCE WASHINGTON DC DOWNTOWN,999 9TH STREET NW,202-898-9000,807,http://www.marriott.com/hotels/travel/wasrb-renaissance-washington-dc-downtown-hotel/,temp_69,115,20001,397945.24,137108.46,218802,,,,{750DCA5E-7CAD-4D4D-B3BD-9BCE8122BA76}
-8573788.4683219,4707613.22605101,HAMPTON INN WASHINGTON DOWNTOWN CONVENTION CENTER,901 6TH STREET NW,202-842-2500,228,http://hamptoninn3.hilton.com/en/hotels/district-of-columbia/hampton-inn-washington-downtown-convention-center-WASHHHX/index.html,temp_103,116,20001,398295.53,137103.05,300640,,,,{23727267-E050-46B9-AFEC-B9CD39397559}
-8576712.66766406,4707577.53440655,HOTEL LOMBARDY,2019 PENNSYLVANIA AVENUE NW,202-828-2600,140,http://www.hotellombardy.com/,temp_116,117,20006,396016.94,137076.17,307825,,,,{20BEC307-BB50-4A0E-AE57-D2B19244DCA3}
-8573318.9490133,4707568.44829145,CAPITAL VIEW HOSTEL,301 I STREET NW,202-450-3450,,http://www.capitalhostels.com/,temp_15,118,20001,398661.38,137068.23,289320,,,,{EE0B2A55-3531-4CB7-8A31-4648F48FE8A6}
-8574428.95962841,4707565.0419418,CONRAD WASHINGTON DC,950 NEW YORK AVENUE NW,202-844-5900,,http://conradhotels3.hilton.com/en/hotels/district-of-columbia/conrad-washington-dc-WASCICI/index.html,temp_134,119,20001,397796.44,137065.78,309621,,,,{C62301F2-27C7-4306-8896-31448A4E691F}
-8577580.2226883,4707562.2790284,THE RIVER INN,924 25TH STREET NW,202-337-7600,125,http://www.theriverinn.com/,temp_76,120,20037,395340.92,137064.7,273930,,,,{5060D2B5-CD27-4A40-8E90-AE35B7052C5D}
-8575969.26476243,4707512.50031822,"CLUB QUARTERS HOTEL WASHINGTON, D.C.",839 17TH STREET NW,202-463-6400,185,https://clubquartershotels.com/locations/club-quarters-hotel-washington-dc,temp_20,121,20006,396596.19,137025.43,218777,,,,{913A0FD0-E542-4608-BD3C-A92967B93774}
-8575133.64111307,4707454.00343905,HILTON GARDEN INN WASHINGTON DC DOWNTOWN,815 14TH STREET NW,202-783-7800,300,http://hiltongardeninn3.hilton.com/en/hotels/district-of-columbia/hilton-garden-inn-washington-dc-downtown-DCACHGI/index.html,temp_107,122,20005,397247.31,136979.78,279961,,,,{1431F8BD-A724-4BE5-B640-AC386223CB78}
-8575715.05620285,4707433.78529087,THE HAY-ADAMS,800 16TH STREET NW,202-638-6600,145,http://www.hayadams.com/,temp_104,123,20006,396794.25,136964.26,279937,,,,{E69EBBA2-702F-478E-913C-E1BEFA41134E}
-8575384.56111701,4707430.97633455,SOFITEL WASHINGTON DC LAFAYETTE SQUARE,806 15TH STREET NW,202-730-8800,237,http://www.sofitel.com/gb/hotel-3293-sofitel-washington-dc-lafayette-square/index.shtml,temp_121,124,20005,397051.78,136961.98,279949,,,,{892EBBD2-724D-4DBA-B18F-DDA66A15B4E8}
-8576177.1005036,4707426.78330811,HAMPTON INN WASHINGTON DC/WHITE HOUSE,1729 H STREET NW,202-296-1006,116,http://hamptoninn3.hilton.com/en/hotels/district-of-columbia/hampton-inn-washington-dc-white-house-WASHSHX/index.html,temp_102,125,20006,396434.21,136958.98,279355,,,,{99273D82-C886-4372-9068-CCB718F02A87}
-8571500.44577966,4707420.00887087,CITY HOUSE HOSTEL WASHINGTON DC,506 H STREET NE,202-370-6390,,http://www.cityhousehostels.com/washington-dc/,temp_164,126,20002,400078.39,136952.92,13950,,,,{EC7EF159-D0A2-4B00-A99B-D8F375FD8A74}
-8577465.18834396,4707390.86394344,ARC THE.HOTEL,824 NEW HAMPSHIRE AVENUE NW,202-843-1564,95,https://arcthehoteldc.com,temp_44,127,20037,395430.48,136931.62,274009,,,,{9174132E-3A66-4AD1-B970-CB5966E484C6}
-8573961.04547414,4707360.7053831,POD HOTEL DC,627 H STREET NW,202-847-4444,,https://www.thepodhotel.com/pod-dc/,temp_147,128,20001,398161.01,136907.11,238700,,,,{A0CC6825-3082-4624-ADFB-9180A1C9D0EC}
-8576086.33710793,4707352.73201442,AKA WHITE HOUSE,1710 H STREET NW,202-904-2500,142,http://www.stayaka.com/locations/white_house/default.aspx,temp_3,129,20006,396504.91,136901.48,218432,,,,{007122C9-758F-45F1-84FB-B8BCDC5FD4A4}
-8577417.09730891,4707336.82404886,"RESIDENCE INN WASHINGTON, DC/FOGGY BOTTOM",801 NEW HAMPSHIRE AVENUE NW,202-785-2000,103,https://www.marriott.com/hotels/travel/wasfg-residence-inn-washington-dc-foggy-bottom/,temp_72,130,20037,395467.93,136889.66,277506,,,,{74A9AE05-0F02-45AB-A3FB-A43B67CFA405}
-8575316.11218201,4707334.77245361,THE WOODWARD BY BRIDGESTREET,733 15TH STREET NW,1-800-278-7338,,https://www.bridgestreet.com/properties/washington/the-woodward,temp_10,131,20005,397105.09,136887.3,279921,,,,{D1AA9453-C94C-46F8-AFE8-9FD694CEF8E1}
-8573744.02643845,4707309.45656217,"FAIRFIELD INN & SUITES WASHINGTON, DC/DOWNTOWN",500 H STREET NW,202-289-5959,189,http://www.marriott.com/hotels/travel/wasfc-fairfield-inn-and-suites-washington-dc-downtown/,temp_40,132,20001,398330.11,136867.3,242981,,,,{897D2F08-E88C-4614-8802-E82C5B02E74E}
-8574694.13548492,4707267.17848941,MARRIOTT AT METRO CENTER,775 12TH STREET NW,202-737-2200,459,http://www.marriott.com/hotels/travel/wasmc-washington-marriott-at-metro-center/,temp_59,133,20005,397589.74,136834.68,239130,,,,{91DE3C1B-4603-4EAA-965A-A8B712BCECA5}
-8577814.82755633,4707263.50143086,THE WATERGATE HOTEL,2650 VIRGINIA AVENUE NW,202-827-1600,336,https://www.thewatergatehotel.com,temp_137,134,20037,395157.97,136832.94,279606,,,,{FFF54DFB-3D50-4E2B-8F1D-DC4BF2C59851}
-8574549.64773145,4707264.28375209,GRAND HYATT WASHINGTON,1000 H STREET NW,202-582-1234,897,https://washingtondc.grand.hyatt.com/en/hotel/home.html,temp_50,135,20001,397702.33,136832.4,239368,,,,{5A9AA1A6-D877-412F-8F50-3A7AA4ACB420}
-8577129.51734934,4706952.48947948,HOTEL HIVE,2224 F STREET NW,202-849-8499,50,http://www.hotelhive.com,temp_4,136,20037,395691.86,136591.26,242724,,,,{43ACECEA-2BED-4468-82D3-A8821EE8D08A}
-8572656.14205764,4706941.6394724,PHOENIX PARK HOTEL,520 NORTH CAPITOL STREET NW,202-638-6900,149,http://www.phoenixparkhotel.com/,temp_67,137,20001,399177.8,136581.71,237156,,,,{7B10485A-63AC-406A-A34B-3E8DDCB3B8D7}
-8574309.03224743,4706938.97415641,COURTYARD WASHINGTON CONVENTION CENTER,900 F STREET NW,202-638-4600,188,http://www.marriott.com/hotels/travel/wascn-courtyard-washington-convention-center/,temp_23,138,20004,397889.76,136579.88,243269,,,,{A486E911-A8DF-414D-8143-6482393FEF1E}
-8574101.65468068,4706927.89490552,KIMPTON HOTEL MONACO,700 F STREET NW,202-628-7177,183,http://www.monaco-dc.com/,temp_118,139,20004,398051.36,136571.24,301590,,,,{535553A0-7BC0-4237-8E1A-A7769578F183}
-8575318.09248852,4706923.10164925,W WASHINGTON D.C.,515 15TH STREET NW,202-661-2400,317,http://www.wwashingtondc.com/,temp_100,140,20004,397103.43,136567.81,279820,,,,{C10699F3-DED2-487E-AE1F-F30D1BFB65F3}
-8572836.5252181,4706902.25548118,WASHINGTON COURT HOTEL,525 NEW JERSEY AVENUE NW,202-628-2100,265,http://washingtoncourthotel.com/,temp_101,141,20001,399037.23,136551.16,279827,,,,{E46938C1-46C2-468C-80A9-EB883EAA585B}
-8576575.68053851,4706860.04391401,"COURTYARD WASHINGTON, DC/FOGGY BOTTOM",515 20TH STREET NW,202-296-5700,149,http://www.marriott.com/hotels/travel/wasfb-courtyard-washington-dc-foggy-bottom/,temp_26,142,20006,396123.41,136519.29,279821,,,,{76B5E305-2020-4D0F-AC12-362B3B559E4D}
-8575201.65194038,4706856.91522757,WILLARD INTERCONTINENTAL WASHINGTON D.C.,1401 PENNSYLVANIA AVENUE NW,202-628-9100,340,http://washington.intercontinental.com/,temp_98,143,20004,397194.15,136516.41,279129,,,,{235943B9-B41E-4A84-9969-860F8870E0A8}
-8572703.94568775,4706843.09043939,KIMPTON GEORGE HOTEL,15 E STREET NW,202-347-4200,139,http://www.hotelgeorge.com/,temp_113,144,20001,399140.54,136505.23,237159,,,,{4BF1DE63-0DB5-4897-AAF4-A9B4E92FFC71}
-8576888.82232454,4706841.11187143,STATE PLAZA HOTEL,2117 E STREET NW,202-861-8200,460,http://www.stateplaza.com/,temp_80,145,20037,395879.38,136504.72,242537,,,,{D8298C3F-8B76-4CB2-B187-404198BF6073}
-8575093.33953276,4706839.05609677,JW MARRIOTT,1331 PENNSYLVANIA AVENUE NW,202-393-2000,772,http://www.marriott.com/hotels/travel/wasjw-jw-marriott-washington-dc/,temp_55,146,20004,397278.55,136502.52,279081,,,,{39C87AC2-9D11-4B61-9224-71A3A2AE0CB8}
-8574640.25891766,4706781.34944601,HOTEL HARRINGTON,436 11TH STREET NW,202-628-8140,242,http://www.hotel-harrington.com/,temp_114,147,20004,397631.61,136457.62,300863,,,,{AA50FC15-ECF7-4FE5-8481-533FCE78AE9A}
-8574130.26908708,4706763.47684611,STAY ALFRED ON 8TH STREET,425 8TH STREET NW,855-923-8300,,https://www.stayalfred.com/property/stay-alfred-on-8th-street,temp_136,148,20004,398029.03,136443.64,226572,,,,{200025B5-AA19-4375-A1F3-B721315318DB}
-8572790.35567159,4706699.20923178,THE LIASON CAPITOL HILL,415 NEW JERSEY AVENUE NW,202-638-1616,343,https://www.jdvhotels.com/hotels/washington-dc/washington/liaison-capitol-hill,temp_92,149,20001,399073.19,136393.57,237162,,,,{A652E5CA-8CCB-448F-BA08-A01EED5CFB07}
-8572903.85696611,4706696.0642739,HYATT REGENCY WASHINGTON ON CAPITOL HILL,400 NEW JERSEY AVENUE NW,202-737-1234,836,http://washingtonregency.hyatt.com/en/hotel/home.html,temp_123,150,20001,398984.74,136391.14,279731,,,,{F9E62F62-FBC5-455C-ADCE-5B0CA410E7A4}
-8574669.16709357,4706514.59037105,"TRUMP INTERNATIONAL HOTEL WASHINGTON, D.C.",1100 PENNSYLVANIA AVENUE NW,202-695-1100,263,https://www.trumphotels.com/washington-dc,temp_138,151,20004,397609.02,136250.59,293192,,,,{5AC7CD34-A65C-45C7-B904-6E141F241BDD}
-8571518.71816131,4706082.53313805,FOUND PLACES CAPITOL HILL BED AND BREAKFAST,101 5TH STREET NE,202-798-1262,11,https://www.capitolhillbnb.com/en-us,temp_166,152,20002,400064.16,135914.89,75958,,,,{3CC8F707-86D2-48DB-B547-09B98D7EB8FD}
-8570485.30956071,4705694.60909279,A CAPITOL PLACE,134 12TH STREET SE,202-543-1020,5,,temp_1,153,20003,400869.56,135613.84,66757,,,,{B1595633-C875-4D9B-B7A7-DF1602D0383A}
-8571510.26634946,4705612.11345736,INDEPENDENCE HOUSE B & B,504 INDEPENDENCE AVENUE SE,202-328-3510 ,,https://www.bedandbreakfastdc.com/accommodations/independence-house-b-b,temp_124,154,20003,400070.75,135549.76,14495,,,,{E64D2FC7-4E62-45E5-824F-7EA97B073765}
-8571943.27719999,4705389.38354213,CAPITOL HILL HOTEL,200 C STREET SE,202-543-6000,152,http://capitolhillhotel-dc.com/,temp_16,155,20003,399733.27,135376.88,278017,,,,{B430950F-6524-4A91-B35F-B4B732600CAC}
-8563429.57625192,4705353.85762872,,5213 B STREET SE,202-670-6332,4,http://www.malolobandb.com/,temp_168,156,20019,406368.73,135351.86,11549,,,,{E3631AB3-381B-47B5-BEC6-7AE5F0F277A0}
-8573785.85614645,4705303.81647563,HOLIDAY INN CAPITOL,550 C STREET SW,202-479-4000,532,http://www.hicapitoldc.com/,temp_109,157,20024,398297.18,135310.64,276671,,,,{A3BE1E4E-2EC2-40E0-90E7-1EE88814338D}
-8574313.39517688,4705056.15900023,HILTON WASHINGTON DC NATIONAL MALL,480 L'ENFANT PLAZA SW,202-871-8345,372,http://hiltondcnationalmall.com/,temp_14,158,20024,397885.97,135118.5,302307,,,,{F13CDFAF-5080-4278-9AA0-497669A28DD2}
-8573374.40732389,4705015.02685676,"RESIDENCE INN WASHINGTON, DC/CAPITOL",333 E STREET SW,202-484-8280,233,http://www.marriott.com/hotels/travel/wascp-residence-inn-washington-dc-capitol/,temp_73,159,20024,398617.82,135086.41,277584,,,,{5DD7573C-0631-4826-BD0A-9DB3362550BB}
-8574990.59922096,4705013.3262908,MANDARIN ORIENTAL,1330 MARYLAND AVENUE SW,202-554-8588,400,https://www.mandarinoriental.com/washington/national-mall/luxury-hotel,temp_58,160,20024,397358.14,135085.41,297583,,,,{BAC41F2E-B095-4965-ADA8-C68375ACC480}
-8570722.96338451,4704979.43381213,DUO NOMAD,1010 PENNSYLVANIA AVENUE SE,202-629-3495,,https://www.duonomad.com,temp_158,161,20003,400684.39,135058.69,75803,,,,{03F8F5EC-78CD-4D87-BC7F-165F3223C341}
-8573600.74185802,4704935.71846191,HYATT PLACE WASHINGTON DC/NATIONAL MALL,400 E STREET SW,202-803-6110,214,https://dcnationalmall.place.hyatt.com/en/hotel/home.html,temp_141,162,20024,398441.4,135024.88,311526,,,,{A0B25068-D7B7-49E3-94E5-73576E2AB226}
-8574389.29016069,4704414.12680036,INTERCONTINENTAL WASHINGTON D.C. - THE WHARF,801 WHARF STREET SW,202-800-0844,,https://wharfintercontinentaldc.com,temp_135,163,20024,397826.68,134620.13,312937,,,,{26428779-1DC4-4BBB-B7DA-C8BE874D35C6}
-8572684.2021196,4704358.84230416,CAPITOL SKYLINE HOTEL,10 I STREET SW,202-488-7500,203,http://www.capitolskyline.com/,temp_17,164,20024,399155.72,134576.96,276385,,,,{4E6D0E1C-D0C2-4B71-897D-81375DFD6F9C}
-8574209.47915749,4704288.03668621,CANOPY WASHINGTON DC THE WHARF,975 7TH STREET SW,202-488-2500,,http://canopy3.hilton.com/en/hotels/district-of-columbia/canopy-by-hilton-washington-dc-the-wharf-DCACUPY/index.html,temp_153,165,20024,397966.81,134522.21,313288,,,,{7A4EADB0-F96B-40C7-BC85-D78A001696BE}
-8572041.96914974,4704169.92994909,COURTYARD WASHINGTON CAPITOL HILL/NAVY YARD,140 L STREET SE,202-479-0027,204,http://www.marriott.com/hotels/travel/wasny-courtyard-washington-capitol-hill-navy-yard/,temp_28,166,20003,399656.31,134430.27,299775,,,,{C1C583AB-AE56-4E45-AD74-4ECF9561456B}
-8572409.93509609,4704022.47927947,HOMEWOOD SUITES WASHINGTON DC CAPITOL - NAVY YARD,50 M STREET SE,202-899-2800,195,http://homewoodsuites3.hilton.com/en/hotels/district-of-columbia/homewood-suites-by-hilton-washington-dc-capitol-navy-yard-WASCAHW/index.html,temp_140,167,20003,399369.48,134315.82,278548,,,,{AB618B8C-A158-456F-B01C-35E32AC26F51}
-8572291.52959321,4703915.16133485,RESIDENCE INN WASHINGTON CAPITOL HILL/NAVY YARD,1233 1ST STREET SE,202-770-2800,,https://www.marriott.com/hotels/travel/wasxr-residence-inn-washington-capitol-hill-navy-yard/,temp_142,168,20003,399461.77,134232.5,70461,,,,{BE18B222-2D3D-45A5-9008-0AE2F4B7B258}
-8572289.94261479,4703781.41680942,HAMPTON INN & SUITES WASHINGTON DC-NAVY YARD,1265 1ST STREET SE,202-800-1000,,http://hamptoninn3.hilton.com/en/hotels/district-of-columbia/hampton-inn-and-suites-washington-dc-navy-yard-WASNYHX/index.html,temp_155,169,20003,399463,134128.67,304845,,,,{37F6643C-0B53-4BFC-BCE7-E97204666DEC}
